IRIDIUM 36              
1 24967U 97056C   24230.19651962  .00001459  00000+0  48650-3 0  9999
2 24967  86.3967 300.6829 0002058  92.8039 267.3394 14.36962272408551
IRIDIUM 39              
1 25042U 97069D   24230.30166537  .00002665  00000+0  70882-3 0  9992
2 25042  86.3965 341.3965 0016444 236.8858 123.0767 14.48193307404961
IRIDIUM 38              
1 25043U 97069E   24230.32420110  .00001847  00000+0  61183-3 0  9990
2 25043  86.4000   0.9715 0003128  58.4554 301.6949 14.37424021402298
IRIDIUM 42              
1 25077U 97077A   24230.38001163  .00001880  00000+0  64450-3 0  9992
2 25077  86.3999   6.7393 0002521  78.6430 281.5049 14.35707943397598
IRIDIUM 44              
1 25078U 97077B   24230.31616083  .00001751  00000+0  55528-3 0  9992
2 25078  86.4003 349.5167 0001192  33.7150 326.4125 14.39556954399973
IRIDIUM 45              
1 25104U 97082A   24230.41519394  .00035646  00000+0  18720-2 0  9998
2 25104  86.3742 193.4703 0152861  17.8129 342.8380 15.05922819406068
IRIDIUM 24              
1 25105U 97082B   24230.46753203  .00001905  00000+0  58225-3 0  9999
2 25105  86.3923 208.9324 0011808  13.3504 346.8006 14.41351165399456
IRIDIUM 51              
1 25262U 98018A   24230.30068889  .00039484  00000+0  16933-2 0  9997
2 25262  86.3955 203.1361 0133676 318.1189  40.9882 15.14737719400659
