<?xml version="1.0" encoding="UTF-8"?>
<ndm xmlns:xsi="http://www.w3.org/2001/XMLSchema-instance" xsi:noNamespaceSchemaLocation="https://sanaregistry.org/r/ndmxml_unqualified/ndmxml-2.0.0-master-2.0.xsd">
<omm id="CCSDS_OMM_VERS" version="2.0">
<header><CREATION_DATE/><ORIGINATOR/></header><body><segment><metadata><OBJECT_NAME>IRIDIUM 36</OBJECT_NAME><OBJECT_ID>1997-056C</OBJECT_ID><CENTER_NAME>EARTH</CENTER_NAME><REF_FRAME>TEME</REF_FRAME><TIME_SYSTEM>UTC</TIME_SYSTEM><MEAN_ELEMENT_THEORY>SGP4</MEAN_ELEMENT_THEORY></metadata><data><meanElements><EPOCH>2024-08-17T04:42:59.295168</EPOCH><MEAN_MOTION>14.36962272</MEAN_MOTION><ECCENTRICITY>.0002058</ECCENTRICITY><INCLINATION>86.3967</INCLINATION><RA_OF_ASC_NODE>300.6829</RA_OF_ASC_NODE><ARG_OF_PERICENTER>92.8039</ARG_OF_PERICENTER><MEAN_ANOMALY>267.3394</MEAN_ANOMALY></meanElements><tleParameters><EPHEMERIS_TYPE>0</EPHEMERIS_TYPE><CLASSIFICATION_TYPE>U</CLASSIFICATION_TYPE><NORAD_CAT_ID>24967</NORAD_CAT_ID><ELEMENT_SET_NO>999</ELEMENT_SET_NO><REV_AT_EPOCH>40855</REV_AT_EPOCH><BSTAR>.4865E-3</BSTAR><MEAN_MOTION_DOT>.1459E-4</MEAN_MOTION_DOT><MEAN_MOTION_DDOT>0</MEAN_MOTION_DDOT></tleParameters></data></segment></body></omm>
<omm id="CCSDS_OMM_VERS" version="2.0">
<header><CREATION_DATE/><ORIGINATOR/></header><body><segment><metadata><OBJECT_NAME>IRIDIUM 39</OBJECT_NAME><OBJECT_ID>1997-069D</OBJECT_ID><CENTER_NAME>EARTH</CENTER_NAME><REF_FRAME>TEME</REF_FRAME><TIME_SYSTEM>UTC</TIME_SYSTEM><MEAN_ELEMENT_THEORY>SGP4</MEAN_ELEMENT_THEORY></metadata><data><meanElements><EPOCH>2024-08-17T07:14:23.887968</EPOCH><MEAN_MOTION>14.48193307</MEAN_MOTION><ECCENTRICITY>.0016444</ECCENTRICITY><INCLINATION>86.3965</INCLINATION><RA_OF_ASC_NODE>341.3965</RA_OF_ASC_NODE><ARG_OF_PERICENTER>236.8858</ARG_OF_PERICENTER><MEAN_ANOMALY>123.0767</MEAN_ANOMALY></meanElements><tleParameters><EPHEMERIS_TYPE>0</EPHEMERIS_TYPE><CLASSIFICATION_TYPE>U</CLASSIFICATION_TYPE><NORAD_CAT_ID>25042</NORAD_CAT_ID><ELEMENT_SET_NO>999</ELEMENT_SET_NO><REV_AT_EPOCH>40496</REV_AT_EPOCH><BSTAR>.70882E-3</BSTAR><MEAN_MOTION_DOT>.2665E-4</MEAN_MOTION_DOT><MEAN_MOTION_DDOT>0</MEAN_MOTION_DDOT></tleParameters></data></segment></body></omm>
<omm id="CCSDS_OMM_VERS" version="2.0">
<header><CREATION_DATE/><ORIGINATOR/></header><body><segment><metadata><OBJECT_NAME>IRIDIUM 38</OBJECT_NAME><OBJECT_ID>1997-069E</OBJECT_ID><CENTER_NAME>EARTH</CENTER_NAME><REF_FRAME>TEME</REF_FRAME><TIME_SYSTEM>UTC</TIME_SYSTEM><MEAN_ELEMENT_THEORY>SGP4</MEAN_ELEMENT_THEORY></metadata><data><meanElements><EPOCH>2024-08-17T07:46:50.975040</EPOCH><MEAN_MOTION>14.37424021</MEAN_MOTION><ECCENTRICITY>.0003128</ECCENTRICITY><INCLINATION>86.4000</INCLINATION><RA_OF_ASC_NODE>0.9715</RA_OF_ASC_NODE><ARG_OF_PERICENTER>58.4554</ARG_OF_PERICENTER><MEAN_ANOMALY>301.6949</MEAN_ANOMALY></meanElements><tleParameters><EPHEMERIS_TYPE>0</EPHEMERIS_TYPE><CLASSIFICATION_TYPE>U</CLASSIFICATION_TYPE><NORAD_CAT_ID>25043</NORAD_CAT_ID><ELEMENT_SET_NO>999</ELEMENT_SET_NO><REV_AT_EPOCH>40229</REV_AT_EPOCH><BSTAR>.61183E-3</BSTAR><MEAN_MOTION_DOT>.1847E-4</MEAN_MOTION_DOT><MEAN_MOTION_DDOT>0</MEAN_MOTION_DDOT></tleParameters></data></segment></body></omm>
<omm id="CCSDS_OMM_VERS" version="2.0">
<header><CREATION_DATE/><ORIGINATOR/></header><body><segment><metadata><OBJECT_NAME>IRIDIUM 42</OBJECT_NAME><OBJECT_ID>1997-077A</OBJECT_ID><CENTER_NAME>EARTH</CENTER_NAME><REF_FRAME>TEME</REF_FRAME><TIME_SYSTEM>UTC</TIME_SYSTEM><MEAN_ELEMENT_THEORY>SGP4</MEAN_ELEMENT_THEORY></metadata><data><meanElements><EPOCH>2024-08-17T09:07:13.004832</EPOCH><MEAN_MOTION>14.35707943</MEAN_MOTION><ECCENTRICITY>.0002521</ECCENTRICITY><INCLINATION>86.3999</INCLINATION><RA_OF_ASC_NODE>6.7393</RA_OF_ASC_NODE><ARG_OF_PERICENTER>78.6430</ARG_OF_PERICENTER><MEAN_ANOMALY>281.5049</MEAN_ANOMALY></meanElements><tleParameters><EPHEMERIS_TYPE>0</EPHEMERIS_TYPE><CLASSIFICATION_TYPE>U</CLASSIFICATION_TYPE><NORAD_CAT_ID>25077</NORAD_CAT_ID><ELEMENT_SET_NO>999</ELEMENT_SET_NO><REV_AT_EPOCH>39759</REV_AT_EPOCH><BSTAR>.6445E-3</BSTAR><MEAN_MOTION_DOT>.188E-4</MEAN_MOTION_DOT><MEAN_MOTION_DDOT>0</MEAN_MOTION_DDOT></tleParameters></data></segment></body></omm>
<omm id="CCSDS_OMM_VERS" version="2.0">
<header><CREATION_DATE/><ORIGINATOR/></header><body><segment><metadata><OBJECT_NAME>IRIDIUM 44</OBJECT_NAME><OBJECT_ID>1997-077B</OBJECT_ID><CENTER_NAME>EARTH</CENTER_NAME><REF_FRAME>TEME</REF_FRAME><TIME_SYSTEM>UTC</TIME_SYSTEM><MEAN_ELEMENT_THEORY>SGP4</MEAN_ELEMENT_THEORY></metadata><data><meanElements><EPOCH>2024-08-17T07:35:16.295712</EPOCH><MEAN_MOTION>14.39556954</MEAN_MOTION><ECCENTRICITY>.0001192</ECCENTRICITY><INCLINATION>86.4003</INCLINATION><RA_OF_ASC_NODE>349.5167</RA_OF_ASC_NODE><ARG_OF_PERICENTER>33.7150</ARG_OF_PERICENTER><MEAN_ANOMALY>326.4125</MEAN_ANOMALY></meanElements><tleParameters><EPHEMERIS_TYPE>0</EPHEMERIS_TYPE><CLASSIFICATION_TYPE>U</CLASSIFICATION_TYPE><NORAD_CAT_ID>25078</NORAD_CAT_ID><ELEMENT_SET_NO>999</ELEMENT_SET_NO><REV_AT_EPOCH>39997</REV_AT_EPOCH><BSTAR>.55528E-3</BSTAR><MEAN_MOTION_DOT>.1751E-4</MEAN_MOTION_DOT><MEAN_MOTION_DDOT>0</MEAN_MOTION_DDOT></tleParameters></data></segment></body></omm>
<omm id="CCSDS_OMM_VERS" version="2.0">
<header><CREATION_DATE/><ORIGINATOR/></header><body><segment><metadata><OBJECT_NAME>IRIDIUM 45</OBJECT_NAME><OBJECT_ID>1997-082A</OBJECT_ID><CENTER_NAME>EARTH</CENTER_NAME><REF_FRAME>TEME</REF_FRAME><TIME_SYSTEM>UTC</TIME_SYSTEM><MEAN_ELEMENT_THEORY>SGP4</MEAN_ELEMENT_THEORY></metadata><data><meanElements><EPOCH>2024-08-17T09:57:52.756416</EPOCH><MEAN_MOTION>15.05922819</MEAN_MOTION><ECCENTRICITY>.0152861</ECCENTRICITY><INCLINATION>86.3742</INCLINATION><RA_OF_ASC_NODE>193.4703</RA_OF_ASC_NODE><ARG_OF_PERICENTER>17.8129</ARG_OF_PERICENTER><MEAN_ANOMALY>342.8380</MEAN_ANOMALY></meanElements><tleParameters><EPHEMERIS_TYPE>0</EPHEMERIS_TYPE><CLASSIFICATION_TYPE>U</CLASSIFICATION_TYPE><NORAD_CAT_ID>25104</NORAD_CAT_ID><ELEMENT_SET_NO>999</ELEMENT_SET_NO><REV_AT_EPOCH>40606</REV_AT_EPOCH><BSTAR>.1872E-2</BSTAR><MEAN_MOTION_DOT>.35646E-3</MEAN_MOTION_DOT><MEAN_MOTION_DDOT>0</MEAN_MOTION_DDOT></tleParameters></data></segment></body></omm>
<omm id="CCSDS_OMM_VERS" version="2.0">
<header><CREATION_DATE/><ORIGINATOR/></header><body><segment><metadata><OBJECT_NAME>IRIDIUM 24</OBJECT_NAME><OBJECT_ID>1997-082B</OBJECT_ID><CENTER_NAME>EARTH</CENTER_NAME><REF_FRAME>TEME</REF_FRAME><TIME_SYSTEM>UTC</TIME_SYSTEM><MEAN_ELEMENT_THEORY>SGP4</MEAN_ELEMENT_THEORY></metadata><data><meanElements><EPOCH>2024-08-17T11:13:14.767392</EPOCH><MEAN_MOTION>14.41351165</MEAN_MOTION><ECCENTRICITY>.0011808</ECCENTRICITY><INCLINATION>86.3923</INCLINATION><RA_OF_ASC_NODE>208.9324</RA_OF_ASC_NODE><ARG_OF_PERICENTER>13.3504</ARG_OF_PERICENTER><MEAN_ANOMALY>346.8006</MEAN_ANOMALY></meanElements><tleParameters><EPHEMERIS_TYPE>0</EPHEMERIS_TYPE><CLASSIFICATION_TYPE>U</CLASSIFICATION_TYPE><NORAD_CAT_ID>25105</NORAD_CAT_ID><ELEMENT_SET_NO>999</ELEMENT_SET_NO><REV_AT_EPOCH>39945</REV_AT_EPOCH><BSTAR>.58225E-3</BSTAR><MEAN_MOTION_DOT>.1905E-4</MEAN_MOTION_DOT><MEAN_MOTION_DDOT>0</MEAN_MOTION_DDOT></tleParameters></data></segment></body></omm>
<omm id="CCSDS_OMM_VERS" version="2.0">
<header><CREATION_DATE/><ORIGINATOR/></header><body><segment><metadata><OBJECT_NAME>IRIDIUM 51</OBJECT_NAME><OBJECT_ID>1998-018A</OBJECT_ID><CENTER_NAME>EARTH</CENTER_NAME><REF_FRAME>TEME</REF_FRAME><TIME_SYSTEM>UTC</TIME_SYSTEM><MEAN_ELEMENT_THEORY>SGP4</MEAN_ELEMENT_THEORY></metadata><data><meanElements><EPOCH>2024-08-17T07:12:59.520096</EPOCH><MEAN_MOTION>15.14737719</MEAN_MOTION><ECCENTRICITY>.0133676</ECCENTRICITY><INCLINATION>86.3955</INCLINATION><RA_OF_ASC_NODE>203.1361</RA_OF_ASC_NODE><ARG_OF_PERICENTER>318.1189</ARG_OF_PERICENTER><MEAN_ANOMALY>40.9882</MEAN_ANOMALY></meanElements><tleParameters><EPHEMERIS_TYPE>0</EPHEMERIS_TYPE><CLASSIFICATION_TYPE>U</CLASSIFICATION_TYPE><NORAD_CAT_ID>25262</NORAD_CAT_ID><ELEMENT_SET_NO>999</ELEMENT_SET_NO><REV_AT_EPOCH>40065</REV_AT_EPOCH><BSTAR>.16933E-2</BSTAR><MEAN_MOTION_DOT>.39484E-3</MEAN_MOTION_DOT><MEAN_MOTION_DDOT>0</MEAN_MOTION_DDOT></tleParameters></data></segment></body></omm>

</ndm>
